CCSDS_OMM_VERS = 2.0
CREATION_DATE  = 
ORIGINATOR     = 

OBJECT_NAME    = ALOS (DAICHI)
OBJECT_ID      = 2006-002A
CENTER_NAME    = EARTH
REF_FRAME      = TEME
TIME_SYSTEM    = UTC
MEAN_ELEMENT_THEORY = SGP/SGP4

EPOCH          = 2025-12-17T17:37:14.152512
MEAN_MOTION    = 14.69501788
ECCENTRICITY   = .00013612
INCLINATION    = 98.1098
RA_OF_ASC_NODE = 303.1864
ARG_OF_PERICENTER = 113.5739
MEAN_ANOMALY   = 246.5610

EPHEMERIS_TYPE = 0
CLASSIFICATION_TYPE = U
NORAD_CAT_ID   = 28931
ELEMENT_SET_NO = 999
REV_AT_EPOCH   = 6144
BSTAR          = .19545051E-3
MEAN_MOTION_DOT = .111E-4
MEAN_MOTION_DDOT = 0

CCSDS_OMM_VERS = 2.0
CREATION_DATE  = 
ORIGINATOR     = 

OBJECT_NAME    = H-2A R/B
OBJECT_ID      = 2006-002B
CENTER_NAME    = EARTH
REF_FRAME      = TEME
TIME_SYSTEM    = UTC
MEAN_ELEMENT_THEORY = SGP/SGP4

EPOCH          = 2025-12-27T07:38:55.600512
MEAN_MOTION    = 15.14865212
ECCENTRICITY   = .00548409
INCLINATION    = 98.2327
RA_OF_ASC_NODE = 137.2615
ARG_OF_PERICENTER = 127.1340
MEAN_ANOMALY   = 233.4918

EPHEMERIS_TYPE = 0
CLASSIFICATION_TYPE = U
NORAD_CAT_ID   = 28932
ELEMENT_SET_NO = 999
REV_AT_EPOCH   = 8347
BSTAR          = .58098154E-3
MEAN_MOTION_DOT = .11151E-3
MEAN_MOTION_DDOT = 0

CCSDS_OMM_VERS = 2.0
CREATION_DATE  = 
ORIGINATOR     = 

OBJECT_NAME    = RESURS-DK 1
OBJECT_ID      = 2006-021A
CENTER_NAME    = EARTH
REF_FRAME      = TEME
TIME_SYSTEM    = UTC
MEAN_ELEMENT_THEORY = SGP/SGP4

EPOCH          = 2025-12-27T07:36:04.257216
MEAN_MOTION    = 15.12243621
ECCENTRICITY   = .00069834
INCLINATION    = 69.9337
RA_OF_ASC_NODE = 64.1640
ARG_OF_PERICENTER = 246.1035
MEAN_ANOMALY   = 113.9400

EPHEMERIS_TYPE = 0
CLASSIFICATION_TYPE = U
NORAD_CAT_ID   = 29228
ELEMENT_SET_NO = 999
REV_AT_EPOCH   = 7658
BSTAR          = .19269204E-3
MEAN_MOTION_DOT = .3233E-4
MEAN_MOTION_DDOT = 0

CCSDS_OMM_VERS = 2.0
CREATION_DATE  = 
ORIGINATOR     = 

OBJECT_NAME    = CZ-4B R/B
OBJECT_ID      = 2006-046C
CENTER_NAME    = EARTH
REF_FRAME      = TEME
TIME_SYSTEM    = UTC
MEAN_ELEMENT_THEORY = SGP/SGP4

EPOCH          = 2025-12-27T02:13:36.960096
MEAN_MOTION    = 15.16015472
ECCENTRICITY   = .00345196
INCLINATION    = 97.5713
RA_OF_ASC_NODE = 41.1918
ARG_OF_PERICENTER = 156.6964
MEAN_ANOMALY   = 203.5843

EPHEMERIS_TYPE = 0
CLASSIFICATION_TYPE = U
NORAD_CAT_ID   = 29507
ELEMENT_SET_NO = 999
REV_AT_EPOCH   = 4904
BSTAR          = .29158988E-3
MEAN_MOTION_DOT = .5618E-4
MEAN_MOTION_DDOT = 0

CCSDS_OMM_VERS = 2.0
CREATION_DATE  = 
ORIGINATOR     = 

OBJECT_NAME    = CZ-2C R/B
OBJECT_ID      = 2007-010B
CENTER_NAME    = EARTH
REF_FRAME      = TEME
TIME_SYSTEM    = UTC
MEAN_ELEMENT_THEORY = SGP/SGP4

EPOCH          = 2025-12-27T07:15:25.151616
MEAN_MOTION    = 14.20215788
ECCENTRICITY   = .00596999
INCLINATION    = 98.3974
RA_OF_ASC_NODE = 113.2204
ARG_OF_PERICENTER = 143.8977
MEAN_ANOMALY   = 216.6255

EPHEMERIS_TYPE = 0
CLASSIFICATION_TYPE = U
NORAD_CAT_ID   = 31114
ELEMENT_SET_NO = 999
REV_AT_EPOCH   = 96944
BSTAR          = .10121052E-3
MEAN_MOTION_DOT = .179E-5
MEAN_MOTION_DDOT = 0

CCSDS_OMM_VERS = 2.0
CREATION_DATE  = 
ORIGINATOR     = 

OBJECT_NAME    = COSMO-SKYMED 1
OBJECT_ID      = 2007-023A
CENTER_NAME    = EARTH
REF_FRAME      = TEME
TIME_SYSTEM    = UTC
MEAN_ELEMENT_THEORY = SGP/SGP4

EPOCH          = 2025-12-27T12:07:05.128608
MEAN_MOTION    = 14.95874437
ECCENTRICITY   = .0001079
INCLINATION    = 97.8838
RA_OF_ASC_NODE = 187.0018
ARG_OF_PERICENTER = 78.1288
MEAN_ANOMALY   = 282.0053

EPHEMERIS_TYPE = 0
CLASSIFICATION_TYPE = U
NORAD_CAT_ID   = 31598
ELEMENT_SET_NO = 999
REV_AT_EPOCH   = 411
BSTAR          = .35237E-3
MEAN_MOTION_DOT = .3881E-4
MEAN_MOTION_DDOT = 0

CCSDS_OMM_VERS = 2.0
CREATION_DATE  = 
ORIGINATOR     = 

OBJECT_NAME    = COSMOS 2428
OBJECT_ID      = 2007-029A
CENTER_NAME    = EARTH
REF_FRAME      = TEME
TIME_SYSTEM    = UTC
MEAN_ELEMENT_THEORY = SGP/SGP4

EPOCH          = 2025-12-27T04:20:47.171328
MEAN_MOTION    = 14.12896145
ECCENTRICITY   = .00044953
INCLINATION    = 70.9370
RA_OF_ASC_NODE = 355.5581
ARG_OF_PERICENTER = 3.4607
MEAN_ANOMALY   = 356.6544

EPHEMERIS_TYPE = 0
CLASSIFICATION_TYPE = U
NORAD_CAT_ID   = 31792
ELEMENT_SET_NO = 999
REV_AT_EPOCH   = 95385
BSTAR          = .16409314E-3
MEAN_MOTION_DOT = .258E-5
MEAN_MOTION_DDOT = 0

CCSDS_OMM_VERS = 2.0
CREATION_DATE  = 
ORIGINATOR     = 

OBJECT_NAME    = SL-16 R/B
OBJECT_ID      = 2007-029B
CENTER_NAME    = EARTH
REF_FRAME      = TEME
TIME_SYSTEM    = UTC
MEAN_ELEMENT_THEORY = SGP/SGP4

EPOCH          = 2025-12-27T07:52:23.203776
MEAN_MOTION    = 14.14820273
ECCENTRICITY   = .00018869
INCLINATION    = 70.9767
RA_OF_ASC_NODE = 324.4912
ARG_OF_PERICENTER = 267.0863
MEAN_ANOMALY   = 259.6970

EPHEMERIS_TYPE = 0
CLASSIFICATION_TYPE = U
NORAD_CAT_ID   = 31793
ELEMENT_SET_NO = 999
REV_AT_EPOCH   = 95513
BSTAR          = .17909013E-3
MEAN_MOTION_DOT = .298E-5
MEAN_MOTION_DDOT = 0

CCSDS_OMM_VERS = 2.0
CREATION_DATE  = 
ORIGINATOR     = 

OBJECT_NAME    = KORONAS-FOTON
OBJECT_ID      = 2009-003A
CENTER_NAME    = EARTH
REF_FRAME      = TEME
TIME_SYSTEM    = UTC
MEAN_ELEMENT_THEORY = SGP/SGP4

EPOCH          = 2025-12-27T10:14:11.516352
MEAN_MOTION    = 15.41473438
ECCENTRICITY   = .0013182
INCLINATION    = 82.4310
RA_OF_ASC_NODE = 350.8832
ARG_OF_PERICENTER = 62.9137
MEAN_ANOMALY   = 297.3453

EPHEMERIS_TYPE = 0
CLASSIFICATION_TYPE = U
NORAD_CAT_ID   = 33504
ELEMENT_SET_NO = 999
REV_AT_EPOCH   = 93460
BSTAR          = .22199E-3
MEAN_MOTION_DOT = .9362E-4
MEAN_MOTION_DDOT = 0

CCSDS_OMM_VERS = 2.0
CREATION_DATE  = 
ORIGINATOR     = 

OBJECT_NAME    = CZ-2C R/B
OBJECT_ID      = 2011-030B
CENTER_NAME    = EARTH
REF_FRAME      = TEME
TIME_SYSTEM    = UTC
MEAN_ELEMENT_THEORY = SGP/SGP4

EPOCH          = 2025-12-27T11:14:17.341728
MEAN_MOTION    = 14.80946699
ECCENTRICITY   = .0051659
INCLINATION    = 97.8434
RA_OF_ASC_NODE = 315.2508
ARG_OF_PERICENTER = 224.3713
MEAN_ANOMALY   = 249.3083

EPHEMERIS_TYPE = 0
CLASSIFICATION_TYPE = U
NORAD_CAT_ID   = 37731
ELEMENT_SET_NO = 999
REV_AT_EPOCH   = 77940
BSTAR          = .20397E-3
MEAN_MOTION_DOT = .1559E-4
MEAN_MOTION_DDOT = 0

CCSDS_OMM_VERS = 2.0
CREATION_DATE  = 
ORIGINATOR     = 

OBJECT_NAME    = H-2A R/B
OBJECT_ID      = 2012-025E
CENTER_NAME    = EARTH
REF_FRAME      = TEME
TIME_SYSTEM    = UTC
MEAN_ELEMENT_THEORY = SGP/SGP4

EPOCH          = 2025-12-27T10:28:24.742272
MEAN_MOTION    = 14.94539941
ECCENTRICITY   = .0044713
INCLINATION    = 98.4619
RA_OF_ASC_NODE = 317.8022
ARG_OF_PERICENTER = 186.9767
MEAN_ANOMALY   = 173.0835

EPHEMERIS_TYPE = 0
CLASSIFICATION_TYPE = U
NORAD_CAT_ID   = 38341
ELEMENT_SET_NO = 999
REV_AT_EPOCH   = 73742
BSTAR          = .38349E-3
MEAN_MOTION_DOT = .4158E-4
MEAN_MOTION_DDOT = 0

CCSDS_OMM_VERS = 2.0
CREATION_DATE  = 
ORIGINATOR     = 

OBJECT_NAME    = SHIJIAN-16 (SJ-16)
OBJECT_ID      = 2013-057A
CENTER_NAME    = EARTH
REF_FRAME      = TEME
TIME_SYSTEM    = UTC
MEAN_ELEMENT_THEORY = SGP/SGP4

EPOCH          = 2025-12-27T13:19:44.502816
MEAN_MOTION    = 14.92032545
ECCENTRICITY   = .0017908
INCLINATION    = 74.9741
RA_OF_ASC_NODE = 321.6199
ARG_OF_PERICENTER = 285.6421
MEAN_ANOMALY   = 74.2791

EPHEMERIS_TYPE = 0
CLASSIFICATION_TYPE = U
NORAD_CAT_ID   = 39358
ELEMENT_SET_NO = 999
REV_AT_EPOCH   = 66074
BSTAR          = .25136E-3
MEAN_MOTION_DOT = .2529E-4
MEAN_MOTION_DDOT = 0

CCSDS_OMM_VERS = 2.0
CREATION_DATE  = 
ORIGINATOR     = 

OBJECT_NAME    = SL-4 R/B
OBJECT_ID      = 2014-021B
CENTER_NAME    = EARTH
REF_FRAME      = TEME
TIME_SYSTEM    = UTC
MEAN_ELEMENT_THEORY = SGP/SGP4

EPOCH          = 2025-12-27T07:28:36.810624
MEAN_MOTION    = 15.37011716
ECCENTRICITY   = .01006
INCLINATION    = 51.6092
RA_OF_ASC_NODE = 329.7595
ARG_OF_PERICENTER = 198.8547
MEAN_ANOMALY   = 160.8700

EPHEMERIS_TYPE = 0
CLASSIFICATION_TYPE = U
NORAD_CAT_ID   = 39679
ELEMENT_SET_NO = 999
REV_AT_EPOCH   = 64513
BSTAR          = .29504E-3
MEAN_MOTION_DOT = .1245E-3
MEAN_MOTION_DDOT = 0

CCSDS_OMM_VERS = 2.0
CREATION_DATE  = 
ORIGINATOR     = 

OBJECT_NAME    = ALOS-2
OBJECT_ID      = 2014-029A
CENTER_NAME    = EARTH
REF_FRAME      = TEME
TIME_SYSTEM    = UTC
MEAN_ELEMENT_THEORY = SGP/SGP4

EPOCH          = 2025-12-27T13:18:41.418720
MEAN_MOTION    = 14.79473689
ECCENTRICITY   = .0001441
INCLINATION    = 97.9213
RA_OF_ASC_NODE = 96.1896
ARG_OF_PERICENTER = 100.6605
MEAN_ANOMALY   = 259.4769

EPHEMERIS_TYPE = 0
CLASSIFICATION_TYPE = U
NORAD_CAT_ID   = 39766
ELEMENT_SET_NO = 999
REV_AT_EPOCH   = 62620
BSTAR          = .78794E-3
MEAN_MOTION_DOT = .5838E-4
MEAN_MOTION_DDOT = 0

CCSDS_OMM_VERS = 2.0
CREATION_DATE  = 
ORIGINATOR     = 

OBJECT_NAME    = YAOGAN-29
OBJECT_ID      = 2015-069A
CENTER_NAME    = EARTH
REF_FRAME      = TEME
TIME_SYSTEM    = UTC
MEAN_ELEMENT_THEORY = SGP/SGP4

EPOCH          = 2025-12-27T12:42:36.034272
MEAN_MOTION    = 14.82898379
ECCENTRICITY   = .0000994
INCLINATION    = 98.0209
RA_OF_ASC_NODE = 24.7477
ARG_OF_PERICENTER = 157.7140
MEAN_ANOMALY   = 202.4117

EPHEMERIS_TYPE = 0
CLASSIFICATION_TYPE = U
NORAD_CAT_ID   = 41038
ELEMENT_SET_NO = 999
REV_AT_EPOCH   = 54518
BSTAR          = .43343E-4
MEAN_MOTION_DOT = .297E-5
MEAN_MOTION_DDOT = 0

